GLOBALSTAR M035 [-]     
1 25851U 99037A   24097.92822012 -.00000057  00000+0  26852-3 0  9995
2 25851  51.9959 307.8568 0013451 358.8355 108.2340 11.04529173 48057
GLOBALSTAR M032 [-]     
1 25852U 99037B   24097.89591309 -.00000033  00000+0  10886-2 0  9997
2 25852  51.9926 163.2288 0010151 152.0148 208.1199 11.19050872 85945
GLOBALSTAR M051 [-]     
1 25853U 99037C   24097.89006392 -.00000065  00000+0  16332-3 0  9999
2 25853  51.9834  13.3944 0001576 134.6460 225.4480 11.42194965 82537
GLOBALSTAR M030 [-]     
1 25854U 99037D   24097.68763417 -.00000042  00000+0  69909-3 0  9998
2 25854  51.9864 207.7459 0003258 353.0285   7.0486 11.55089386 99602
GLOBALSTAR M048 [-]     
1 25872U 99041A   24097.81241229 -.00000050  00000+0  54042-3 0  9991
2 25872  51.9366 291.7453 0013936 146.6042 226.8816 11.33844862 75489
GLOBALSTAR M026 [-]     
1 25873U 99041B   24097.70352027 -.00000075  00000+0 -39576-3 0  9992
2 25873  52.0012  70.9060 0001089 244.2423 287.0169 11.06836531100152
GLOBALSTAR M043 [-]     
1 25874U 99041C   24097.93070308 -.00000044  00000+0  71139-3 0  9993
2 25874  51.9442  21.7173 0012589 290.7604 187.3315 11.25677213 73741
GLOBALSTAR M028 [-]     
1 25875U 99041D   24097.84198066 -.00000148  00000+0 -30767-3 0  9994
2 25875  51.9640  54.1331 0063100 203.6080 156.1881 12.50552434135583
